[Satellite]
VERSION=1.1
NAME=CZ-6A DEB
NICKNAME=CZ-6A DEB
TLE1=1 54279U 22151W   22341.99491906  .00000587  00000+0  22799-3 0  9998
TLE2=2 54279  98.6347 346.1377 0144067 249.9298 108.6328 14.28153728  3150
STATUS=0
